LEMUR-2-GREENBERG       
1 42837U 17042N   26068.46200528  .00019778  00000+0  72539-3 0  9997
2 42837  97.3781 249.8007 0009157   4.0119 356.1192 15.27971352473146
STARLINK-34164          
1 64177U 25113H   26068.50335499  .00030445  00000+0  10358-2 0  9991
2 64177  53.1599  92.2103 0001302  89.3298 270.7852 15.30199233 45030
